[{"OBJECT_NAME":"TEVEL2-3","OBJECT_ID":"2025-052J","EPOCH":"2026-03-09T15:29:22.754400","MEAN_MOTION":15.30377031,"ECCENTRICITY":0.0004761,"INCLINATION":97.3994,"RA_OF_ASC_NODE":324.7775,"ARG_OF_PERICENTER":105.7353,"MEAN_ANOMALY":254.4413,"EPHEMERIS_TYPE":0,"CLASSIFICATION_TYPE":"U","NORAD_CAT_ID":63218,"ELEMENT_SET_NO":999,"REV_AT_EPOCH":5485,"BSTAR":0.00069446,"MEAN_MOTION_DOT":0.00020365,"MEAN_MOTION_DDOT":0},{"OBJECT_NAME":"STARLINK-35159","OBJECT_ID":"2025-195D","EPOCH":"2026-03-09T17:00:33.960096","MEAN_MOTION":15.30208225,"ECCENTRICITY":0.00011127,"INCLINATION":53.1613,"RA_OF_ASC_NODE":258.3015,"ARG_OF_PERICENTER":125.8283,"MEAN_ANOMALY":234.2822,"EPHEMERIS_TYPE":0,"CLASSIFICATION_TYPE":"U","NORAD_CAT_ID":65461,"ELEMENT_SET_NO":999,"REV_AT_EPOCH":2999,"BSTAR":0.00077076455,"MEAN_MOTION_DOT":0.00022544,"MEAN_MOTION_DDOT":0}]
